[{"CCSDS_OMM_VERS":"2.0","COMMENT":"GENERATED VIA SPACE-TRACK.ORG API","CREATION_DATE":"2012-03-29T11:58:36","ORIGINATOR":"18 SPCS","OBJECT_NAME":"GALILEO-FM2","OBJECT_ID":"2011-060B","CENTER_NAME":"EARTH","REF_FRAME":"TEME","TIME_SYSTEM":"UTC","MEAN_ELEMENT_THEORY":"SGP4","EPOCH":"2012-03-28T03:56:50.354880","MEAN_MOTION":"1.70474828","ECCENTRICITY":"0.00056310","INCLINATION":"54.7264","RA_OF_ASC_NODE":"125.3340","ARG_OF_PERICENTER":"276.9029","MEAN_ANOMALY":"83.1062","EPHEMERIS_TYPE":"0","CLASSIFICATION_TYPE":"U","NORAD_CAT_ID":"37847","ELEMENT_SET_NO":"999","REV_AT_EPOCH":"270","BSTAR":"0.00010000000000","MEAN_MOTION_DOT":"0.00000037","MEAN_MOTION_DDOT":"0.0000000000000","SEMIMAJOR_AXIS":"29600.243","PERIOD":"844.699","APOAPSIS":"23238.776","PERIAPSIS":"23205.440","OBJECT_TYPE":"PAYLOAD","RCS_SIZE":"LARGE","COUNTRY_CODE":"ESA","LAUNCH_DATE":"2011-10-21","SITE":"FRGUI","DECAY_DATE":null,"FILE":"1262166","GP_ID":"87956733","TLE_LINE0":"0 GALILEO-FM2","TLE_LINE1":"1 37847U 11060B   12088.16447170 +.00000037 +00000-0 +10000-3 0  9990","TLE_LINE2":"2 37847 054.7264 125.3340 0005631 276.9029 083.1062 01.70474828002707"},{"CCSDS_OMM_VERS":"2.0","COMMENT":"GENERATED VIA SPACE-TRACK.ORG API","CREATION_DATE":"2012-03-29T15:18:25","ORIGINATOR":"18 SPCS","OBJECT_NAME":"GALILEO-FM2","OBJECT_ID":"2011-060B","CENTER_NAME":"EARTH","REF_FRAME":"TEME","TIME_SYSTEM":"UTC","MEAN_ELEMENT_THEORY":"SGP4","EPOCH":"2012-03-29T08:06:10.980575","MEAN_MOTION":"1.70474835","ECCENTRICITY":"0.00056390","INCLINATION":"54.7268","RA_OF_ASC_NODE":"125.3011","ARG_OF_PERICENTER":"276.8617","MEAN_ANOMALY":"83.1454","EPHEMERIS_TYPE":"0","CLASSIFICATION_TYPE":"U","NORAD_CAT_ID":"37847","ELEMENT_SET_NO":"999","REV_AT_EPOCH":"272","BSTAR":"0.00010000000000","MEAN_MOTION_DOT":"0.00000041","MEAN_MOTION_DDOT":"0.0000000000000","SEMIMAJOR_AXIS":"29600.242","PERIOD":"844.699","APOAPSIS":"23238.798","PERIAPSIS":"23205.415","OBJECT_TYPE":"PAYLOAD","RCS_SIZE":"LARGE","COUNTRY_CODE":"ESA","LAUNCH_DATE":"2011-10-21","SITE":"FRGUI","DECAY_DATE":null,"FILE":"1262304","GP_ID":"87959048","TLE_LINE0":"0 GALILEO-FM2","TLE_LINE1":"1 37847U 11060B   12089.33762709  .00000041  00000-0  10000-3 0  9993","TLE_LINE2":"2 37847 054.7268 125.3011 0005639 276.8617 083.1454 01.70474835  2721"},{"CCSDS_OMM_VERS":"2.0","COMMENT":"GENERATED VIA SPACE-TRACK.ORG API","CREATION_DATE":"2012-03-31T08:43:11","ORIGINATOR":"18 SPCS","OBJECT_NAME":"GALILEO-FM2","OBJECT_ID":"2011-060B","CENTER_NAME":"EARTH","REF_FRAME":"TEME","TIME_SYSTEM":"UTC","MEAN_ELEMENT_THEORY":"SGP4","EPOCH":"2012-03-30T12:15:31.941503","MEAN_MOTION":"1.70474834","ECCENTRICITY":"0.00057190","INCLINATION":"54.7269","RA_OF_ASC_NODE":"125.2681","ARG_OF_PERICENTER":"277.2331","MEAN_ANOMALY":"82.7735","EPHEMERIS_TYPE":"0","CLASSIFICATION_TYPE":"U","NORAD_CAT_ID":"37847","ELEMENT_SET_NO":"999","REV_AT_EPOCH":"274","BSTAR":"0.00010000000000","MEAN_MOTION_DOT":"0.00000045","MEAN_MOTION_DDOT":"0.0000000000000","SEMIMAJOR_AXIS":"29600.242","PERIOD":"844.699","APOAPSIS":"23239.035","PERIAPSIS":"23205.179","OBJECT_TYPE":"PAYLOAD","RCS_SIZE":"LARGE","COUNTRY_CODE":"ESA","LAUNCH_DATE":"2011-10-21","SITE":"FRGUI","DECAY_DATE":null,"FILE":"1263308","GP_ID":"87986892","TLE_LINE0":"0 GALILEO-FM2","TLE_LINE1":"1 37847U 11060B   12090.51078636 +.00000045 +00000-0 +10000-3 0  9998","TLE_LINE2":"2 37847 054.7269 125.2681 0005719 277.2331 082.7735 01.70474834002749"},{"CCSDS_OMM_VERS":"2.0","COMMENT":"GENERATED VIA SPACE-TRACK.ORG API","CREATION_DATE":"2012-04-01T08:40:38","ORIGINATOR":"18 SPCS","OBJECT_NAME":"GALILEO-FM2","OBJECT_ID":"2011-060B","CENTER_NAME":"EARTH","REF_FRAME":"TEME","TIME_SYSTEM":"UTC","MEAN_ELEMENT_THEORY":"SGP4","EPOCH":"2012-03-31T02:20:12.548544","MEAN_MOTION":"1.70474846","ECCENTRICITY":"0.00057490","INCLINATION":"54.7271","RA_OF_ASC_NODE":"125.2516","ARG_OF_PERICENTER":"277.3974","MEAN_ANOMALY":"82.6105","EPHEMERIS_TYPE":"0","CLASSIFICATION_TYPE":"U","NORAD_CAT_ID":"37847","ELEMENT_SET_NO":"999","REV_AT_EPOCH":"275","BSTAR":"0.00010000000000","MEAN_MOTION_DOT":"0.00000048","MEAN_MOTION_DDOT":"0.0000000000000","SEMIMAJOR_AXIS":"29600.241","PERIOD":"844.699","APOAPSIS":"23239.123","PERIAPSIS":"23205.088","OBJECT_TYPE":"PAYLOAD","RCS_SIZE":"LARGE","COUNTRY_CODE":"ESA","LAUNCH_DATE":"2011-10-21","SITE":"FRGUI","DECAY_DATE":null,"FILE":"1263675","GP_ID":"88002092","TLE_LINE0":"0 GALILEO-FM2","TLE_LINE1":"1 37847U 11060B   12091.09736746 +.00000048 +00000-0 +10000-3 0  9998","TLE_LINE2":"2 37847 054.7271 125.2516 0005749 277.3974 082.6105 01.70474846002750"},{"CCSDS_OMM_VERS":"2.0","COMMENT":"GENERATED VIA SPACE-TRACK.ORG API","CREATION_DATE":"2012-04-01T09:36:10","ORIGINATOR":"18 SPCS","OBJECT_NAME":"GALILEO-FM2","OBJECT_ID":"2011-060B","CENTER_NAME":"EARTH","REF_FRAME":"TEME","TIME_SYSTEM":"UTC","MEAN_ELEMENT_THEORY":"SGP4","EPOCH":"2012-04-01T06:29:33.944063","MEAN_MOTION":"1.70474853","ECCENTRICITY":"0.00057500","INCLINATION":"54.7275","RA_OF_ASC_NODE":"125.2187","ARG_OF_PERICENTER":"277.4643","MEAN_ANOMALY":"82.5470","EPHEMERIS_TYPE":"0","CLASSIFICATION_TYPE":"U","NORAD_CAT_ID":"37847","ELEMENT_SET_NO":"999","REV_AT_EPOCH":"277","BSTAR":"0.00010000000000","MEAN_MOTION_DOT":"0.00000055","MEAN_MOTION_DDOT":"0.0000000000000","SEMIMAJOR_AXIS":"29600.240","PERIOD":"844.699","APOAPSIS":"23239.125","PERIAPSIS":"23205.085","OBJECT_TYPE":"PAYLOAD","RCS_SIZE":"LARGE","COUNTRY_CODE":"ESA","LAUNCH_DATE":"2011-10-21","SITE":"FRGUI","DECAY_DATE":null,"FILE":"1263740","GP_ID":"88003760","TLE_LINE0":"0 GALILEO-FM2","TLE_LINE1":"1 37847U 11060B   12092.27053176  .00000055  00000-0  10000-3 0  9996","TLE_LINE2":"2 37847 054.7275 125.2187 0005750 277.4643 082.5470 01.70474853  2778"},{"CCSDS_OMM_VERS":"2.0","COMMENT":"GENERATED VIA SPACE-TRACK.ORG API","CREATION_DATE":"2012-04-03T08:53:14","ORIGINATOR":"18 SPCS","OBJECT_NAME":"GALILEO-FM2","OBJECT_ID":"2011-060B","CENTER_NAME":"EARTH","REF_FRAME":"TEME","TIME_SYSTEM":"UTC","MEAN_ELEMENT_THEORY":"SGP4","EPOCH":"2012-04-02T10:38:55.475232","MEAN_MOTION":"1.70474866","ECCENTRICITY":"0.00057520","INCLINATION":"54.7278","RA_OF_ASC_NODE":"125.1856","ARG_OF_PERICENTER":"277.5101","MEAN_ANOMALY":"82.5061","EPHEMERIS_TYPE":"0","CLASSIFICATION_TYPE":"U","NORAD_CAT_ID":"37847","ELEMENT_SET_NO":"999","REV_AT_EPOCH":"279","BSTAR":"0.00010000000000","MEAN_MOTION_DOT":"0.00000062","MEAN_MOTION_DDOT":"0.0000000000000","SEMIMAJOR_AXIS":"29600.238","PERIOD":"844.699","APOAPSIS":"23239.129","PERIAPSIS":"23205.077","OBJECT_TYPE":"PAYLOAD","RCS_SIZE":"LARGE","COUNTRY_CODE":"ESA","LAUNCH_DATE":"2011-10-21","SITE":"FRGUI","DECAY_DATE":null,"FILE":"1264613","GP_ID":"88033722","TLE_LINE0":"0 GALILEO-FM2","TLE_LINE1":"1 37847U 11060B   12093.44369763 +.00000062 +00000-0 +10000-3 0  9996","TLE_LINE2":"2 37847 054.7278 125.1856 0005752 277.5101 082.5061 01.70474866002797"},{"CCSDS_OMM_VERS":"2.0","COMMENT":"GENERATED VIA SPACE-TRACK.ORG API","CREATION_DATE":"2012-04-04T10:02:24","ORIGINATOR":"18 SPCS","OBJECT_NAME":"GALILEO-FM2","OBJECT_ID":"2011-060B","CENTER_NAME":"EARTH","REF_FRAME":"TEME","TIME_SYSTEM":"UTC","MEAN_ELEMENT_THEORY":"SGP4","EPOCH":"2012-04-03T00:43:36.173855","MEAN_MOTION":"1.70474876","ECCENTRICITY":"0.00057420","INCLINATION":"54.7281","RA_OF_ASC_NODE":"125.1693","ARG_OF_PERICENTER":"277.4255","MEAN_ANOMALY":"82.5927","EPHEMERIS_TYPE":"0","CLASSIFICATION_TYPE":"U","NORAD_CAT_ID":"37847","ELEMENT_SET_NO":"999","REV_AT_EPOCH":"280","BSTAR":"0.00010000000000","MEAN_MOTION_DOT":"0.00000065","MEAN_MOTION_DDOT":"0.0000000000000","SEMIMAJOR_AXIS":"29600.237","PERIOD":"844.699","APOAPSIS":"23239.099","PERIAPSIS":"23205.106","OBJECT_TYPE":"PAYLOAD","RCS_SIZE":"LARGE","COUNTRY_CODE":"ESA","LAUNCH_DATE":"2011-10-21","SITE":"FRGUI","DECAY_DATE":null,"FILE":"1265068","GP_ID":"88047633","TLE_LINE0":"0 GALILEO-FM2","TLE_LINE1":"1 37847U 11060B   12094.03027979 +.00000065 +00000-0 +10000-3 0  9995","TLE_LINE2":"2 37847 054.7281 125.1693 0005742 277.4255 082.5927 01.70474876002802"},{"CCSDS_OMM_VERS":"2.0","COMMENT":"GENERATED VIA SPACE-TRACK.ORG API","CREATION_DATE":"2012-04-04T08:56:22","ORIGINATOR":"18 SPCS","OBJECT_NAME":"GALILEO-FM2","OBJECT_ID":"2011-060B","CENTER_NAME":"EARTH","REF_FRAME":"TEME","TIME_SYSTEM":"UTC","MEAN_ELEMENT_THEORY":"SGP4","EPOCH":"2012-04-04T04:52:57.453599","MEAN_MOTION":"1.70474890","ECCENTRICITY":"0.00057880","INCLINATION":"54.7283","RA_OF_ASC_NODE":"125.1363","ARG_OF_PERICENTER":"278.2479","MEAN_ANOMALY":"81.7726","EPHEMERIS_TYPE":"0","CLASSIFICATION_TYPE":"U","NORAD_CAT_ID":"37847","ELEMENT_SET_NO":"999","REV_AT_EPOCH":"282","BSTAR":"0.00010000000000","MEAN_MOTION_DOT":"0.00000070","MEAN_MOTION_DDOT":"0.0000000000000","SEMIMAJOR_AXIS":"29600.235","PERIOD":"844.699","APOAPSIS":"23239.233","PERIAPSIS":"23204.968","OBJECT_TYPE":"PAYLOAD","RCS_SIZE":"LARGE","COUNTRY_CODE":"ESA","LAUNCH_DATE":"2011-10-21","SITE":"FRGUI","DECAY_DATE":null,"FILE":"1265050","GP_ID":"88040633","TLE_LINE0":"0 GALILEO-FM2","TLE_LINE1":"1 37847U 11060B   12095.20344275  .00000070  00000-0  10000-3 0  9992","TLE_LINE2":"2 37847 054.7283 125.1363 0005788 278.2479 081.7726 01.70474890  2821"}]